{
    "links": {
        "self": "http://www.neowsapp.com/rest/v1/neo/54087843?api_key=iIulBulltgU6a56xZRHN4H3l9WmuAYTsLGpBGhQ2"
    },
    "id": "54087843",
    "neo_reference_id": "54087843",
    "name": "(2020 VR5)",
    "designation": "2020 VR5",
    "nasa_jpl_url": "http://ssd.jpl.nasa.gov/sbdb.cgi?sstr=54087843",
    "absolute_magnitude_h": 25.082,
    "estimated_diameter": {
        "kilometers": {
            "estimated_diameter_min": 0.0255949907,
            "estimated_diameter_max": 0.0572321392
        },
        "meters": {
            "estimated_diameter_min": 25.5949907308,
            "estimated_diameter_max": 57.2321391575
        },
        "miles": {
            "estimated_diameter_min": 0.015903985,
            "estimated_diameter_max": 0.0355623915
        },
        "feet": {
            "estimated_diameter_min": 83.9730693892,
            "estimated_diameter_max": 187.7694914335
        }
    },
    "is_potentially_hazardous_asteroid": false,
    "close_approach_data": [
        {
            "close_approach_date": "2020-11-19",
            "close_approach_date_full": "2020-Nov-19 01:48",
            "epoch_date_close_approach": 1605750480000,
            "relative_velocity": {
                "kilometers_per_second": "8.4993000396",
                "kilometers_per_hour": "30597.4801423882",
                "miles_per_hour": "19012.0842584745"
            },
            "miss_distance": {
                "astronomical": "0.0940489829",
                "lunar": "36.5850543481",
                "kilometers": "14069527.517506423",
                "miles": "8742399.0089497174"
            },
            "orbiting_body": "Earth"
        }
    ],
    "orbital_data": {
        "orbit_id": "4",
        "orbit_determination_date": "2020-11-21 05:21:17",
        "first_observation_date": "2020-11-14",
        "last_observation_date": "2020-11-21",
        "data_arc_in_days": 7,
        "observations_used": 29,
        "orbit_uncertainty": "9",
        "minimum_orbit_intersection": ".0905564",
        "jupiter_tisserand_invariant": "3.388",
        "epoch_osculation": "2459169.5",
        "eccentricity": ".528078699591231",
        "semi_major_axis": "2.272914483271306",
        "inclination": "11.72799000656158",
        "ascending_node_longitude": "49.30180382713367",
        "orbital_period": "1251.621661905317",
        "perihelion_distance": "1.07263675866332",
        "perihelion_argument": "14.33691395548573",
        "aphelion_distance": "3.473192207879293",
        "perihelion_time": "2459179.817676881602",
        "mean_anomaly": "357.0323590662993",
        "mean_motion": ".2876268531913868",
        "equinox": "J2000",
        "orbit_class": {
            "orbit_class_type": "AMO",
            "orbit_class_description": "Near-Earth asteroid orbits similar to that of 1221 Amor",
            "orbit_class_range": "1.017 AU < q (perihelion) < 1.3 AU"
        }
    },
    "is_sentry_object": false
}